0 COSMOS 2251 DEB
1 34006U 93036GR  13281.77219399  .00001723  00000-0  61652-3 0  8812
2 34006 074.0749 166.3242 0032358 209.3273 211.4874 14.34507609243169
0 COSMOS 2251 DEB
1 34006U 93036GR  13283.80589231  .00001891  00000-0  67540-3 0  8822
2 34006 074.0748 162.6089 0032230 204.9250 274.1746 14.34522363243451
0 COSMOS 2251 DEB
1 34006U 93036GR  13285.82948275  .00002400  00000-0  85460-3 0  8832
2 34006 074.0757 158.9135 0032227 200.7322 284.5614 14.34526421243741
0 COSMOS 2251 DEB
1 34006U 93036GR  13287.85238881  .00003707  00000-0  13145-2 0  8844
2 34006 074.0752 155.2178 0032126 196.3813 291.6198 14.34537150244036
0 COSMOS 2251 DEB
1 34006U 93036GR  13290.01344795  .00003337  00000-0  11840-2 0  8858
2 34006 074.0746 151.2695 0032045 191.7895 292.2047 14.34548912244340
0 COSMOS 2251 DEB
1 34006U 93036GR  13292.44379427  .00003043  00000-0  10804-2 0  8861
2 34006 074.0741 146.8288 0031944 186.5769 243.6525 14.34563163244696
0 COSMOS 2251 DEB
1 34006U 93036GR  13294.75636398  .00003826  00000-0  13556-2 0  8877
2 34006 074.0744 142.6031 0031841 181.6417 306.9353 14.34575246245026
